CCSDS_OMM_VERS = 2.0
CREATION_DATE  = 
ORIGINATOR     = 

OBJECT_NAME    = TWILIGHT J
OBJECT_ID      = 2026-004J
CENTER_NAME    = EARTH
REF_FRAME      = TEME
TIME_SYSTEM    = UTC
MEAN_ELEMENT_THEORY = SGP/SGP4

EPOCH          = 2026-01-24T06:13:27.020928
MEAN_MOTION    = 14.87648145
ECCENTRICITY   = .00046181
INCLINATION    = 97.7991
RA_OF_ASC_NODE = 25.2118
ARG_OF_PERICENTER = 239.9809
MEAN_ANOMALY   = 120.0950

EPHEMERIS_TYPE = 0
CLASSIFICATION_TYPE = U
NORAD_CAT_ID   = 67371
ELEMENT_SET_NO = 999
REV_AT_EPOCH   = 189
BSTAR          = .10851493E-2
MEAN_MOTION_DOT = .9831E-4
MEAN_MOTION_DDOT = 0

CCSDS_OMM_VERS = 2.0
CREATION_DATE  = 
ORIGINATOR     = 

OBJECT_NAME    = TWILIGHT K
OBJECT_ID      = 2026-004K
CENTER_NAME    = EARTH
REF_FRAME      = TEME
TIME_SYSTEM    = UTC
MEAN_ELEMENT_THEORY = SGP/SGP4

EPOCH          = 2026-01-24T06:09:22.708512
MEAN_MOTION    = 14.87930105
ECCENTRICITY   = .00029583
INCLINATION    = 97.7969
RA_OF_ASC_NODE = 25.2141
ARG_OF_PERICENTER = 233.7382
MEAN_ANOMALY   = 126.3561

EPHEMERIS_TYPE = 0
CLASSIFICATION_TYPE = U
NORAD_CAT_ID   = 67372
ELEMENT_SET_NO = 999
REV_AT_EPOCH   = 189
BSTAR          = .41255859E-3
MEAN_MOTION_DOT = .3726E-4
MEAN_MOTION_DDOT = 0

CCSDS_OMM_VERS = 2.0
CREATION_DATE  = 
ORIGINATOR     = 

OBJECT_NAME    = TWILIGHT L
OBJECT_ID      = 2026-004L
CENTER_NAME    = EARTH
REF_FRAME      = TEME
TIME_SYSTEM    = UTC
MEAN_ELEMENT_THEORY = SGP/SGP4

EPOCH          = 2026-01-24T06:14:10.370400
MEAN_MOTION    = 14.87537688
ECCENTRICITY   = .00045878
INCLINATION    = 97.7984
RA_OF_ASC_NODE = 25.2109
ARG_OF_PERICENTER = 245.2717
MEAN_ANOMALY   = 114.8022

EPHEMERIS_TYPE = 0
CLASSIFICATION_TYPE = U
NORAD_CAT_ID   = 67373
ELEMENT_SET_NO = 999
REV_AT_EPOCH   = 189
BSTAR          = .47979017E-3
MEAN_MOTION_DOT = .4301E-4
MEAN_MOTION_DDOT = 0

CCSDS_OMM_VERS = 2.0
CREATION_DATE  = 
ORIGINATOR     = 

OBJECT_NAME    = TWILIGHT M
OBJECT_ID      = 2026-004M
CENTER_NAME    = EARTH
REF_FRAME      = TEME
TIME_SYSTEM    = UTC
MEAN_ELEMENT_THEORY = SGP/SGP4

EPOCH          = 2026-01-24T06:10:18.668064
MEAN_MOTION    = 14.87879043
ECCENTRICITY   = .00032153
INCLINATION    = 97.7968
RA_OF_ASC_NODE = 25.2121
ARG_OF_PERICENTER = 234.5424
MEAN_ANOMALY   = 125.5493

EPHEMERIS_TYPE = 0
CLASSIFICATION_TYPE = U
NORAD_CAT_ID   = 67374
ELEMENT_SET_NO = 999
REV_AT_EPOCH   = 189
BSTAR          = .55002618E-3
MEAN_MOTION_DOT = .4981E-4
MEAN_MOTION_DDOT = 0

CCSDS_OMM_VERS = 2.0
CREATION_DATE  = 
ORIGINATOR     = 

OBJECT_NAME    = TWILIGHT N
OBJECT_ID      = 2026-004N
CENTER_NAME    = EARTH
REF_FRAME      = TEME
TIME_SYSTEM    = UTC
MEAN_ELEMENT_THEORY = SGP/SGP4

EPOCH          = 2026-01-24T06:09:58.865184
MEAN_MOTION    = 14.87904356
ECCENTRICITY   = .00037629
INCLINATION    = 97.8005
RA_OF_ASC_NODE = 25.2164
ARG_OF_PERICENTER = 227.5249
MEAN_ANOMALY   = 132.5650

EPHEMERIS_TYPE = 0
CLASSIFICATION_TYPE = U
NORAD_CAT_ID   = 67375
ELEMENT_SET_NO = 999
REV_AT_EPOCH   = 189
BSTAR          = .56332131E-3
MEAN_MOTION_DOT = .5106E-4
MEAN_MOTION_DDOT = 0

CCSDS_OMM_VERS = 2.0
CREATION_DATE  = 
ORIGINATOR     = 

OBJECT_NAME    = TWILIGHT P
OBJECT_ID      = 2026-004P
CENTER_NAME    = EARTH
REF_FRAME      = TEME
TIME_SYSTEM    = UTC
MEAN_ELEMENT_THEORY = SGP/SGP4

EPOCH          = 2026-01-24T06:11:44.984256
MEAN_MOTION    = 14.87755444
ECCENTRICITY   = .00041445
INCLINATION    = 97.8002
RA_OF_ASC_NODE = 25.2142
ARG_OF_PERICENTER = 234.4383
MEAN_ANOMALY   = 125.6447

EPHEMERIS_TYPE = 0
CLASSIFICATION_TYPE = U
NORAD_CAT_ID   = 67376
ELEMENT_SET_NO = 999
REV_AT_EPOCH   = 189
BSTAR          = .52651931E-3
MEAN_MOTION_DOT = .4751E-4
MEAN_MOTION_DDOT = 0

CCSDS_OMM_VERS = 2.0
CREATION_DATE  = 
ORIGINATOR     = 

OBJECT_NAME    = TWILIGHT Q
OBJECT_ID      = 2026-004Q
CENTER_NAME    = EARTH
REF_FRAME      = TEME
TIME_SYSTEM    = UTC
MEAN_ELEMENT_THEORY = SGP/SGP4

EPOCH          = 2026-01-24T04:33:00.556992
MEAN_MOTION    = 14.87825869
ECCENTRICITY   = .00029363
INCLINATION    = 97.8004
RA_OF_ASC_NODE = 25.1505
ARG_OF_PERICENTER = 239.2690
MEAN_ANOMALY   = 120.8238

EPHEMERIS_TYPE = 0
CLASSIFICATION_TYPE = U
NORAD_CAT_ID   = 67377
ELEMENT_SET_NO = 999
REV_AT_EPOCH   = 187
BSTAR          = -.37952733E-2
MEAN_MOTION_DOT = -.3455E-3
MEAN_MOTION_DDOT = 0

CCSDS_OMM_VERS = 2.0
CREATION_DATE  = 
ORIGINATOR     = 

OBJECT_NAME    = TWILIGHT R
OBJECT_ID      = 2026-004R
CENTER_NAME    = EARTH
REF_FRAME      = TEME
TIME_SYSTEM    = UTC
MEAN_ELEMENT_THEORY = SGP/SGP4

EPOCH          = 2026-01-24T06:12:39.564864
MEAN_MOTION    = 14.87677788
ECCENTRICITY   = .00036152
INCLINATION    = 97.7976
RA_OF_ASC_NODE = 25.2106
ARG_OF_PERICENTER = 246.0784
MEAN_ANOMALY   = 114.0054

EPHEMERIS_TYPE = 0
CLASSIFICATION_TYPE = U
NORAD_CAT_ID   = 67378
ELEMENT_SET_NO = 999
REV_AT_EPOCH   = 188
BSTAR          = .58026344E-3
MEAN_MOTION_DOT = .5232E-4
MEAN_MOTION_DDOT = 0

CCSDS_OMM_VERS = 2.0
CREATION_DATE  = 
ORIGINATOR     = 

OBJECT_NAME    = TWILIGHT S
OBJECT_ID      = 2026-004S
CENTER_NAME    = EARTH
REF_FRAME      = TEME
TIME_SYSTEM    = UTC
MEAN_ELEMENT_THEORY = SGP/SGP4

EPOCH          = 2026-01-24T06:12:30.456576
MEAN_MOTION    = 14.87689140
ECCENTRICITY   = .00041079
INCLINATION    = 97.7980
RA_OF_ASC_NODE = 25.2121
ARG_OF_PERICENTER = 241.1359
MEAN_ANOMALY   = 118.9446

EPHEMERIS_TYPE = 0
CLASSIFICATION_TYPE = U
NORAD_CAT_ID   = 67379
ELEMENT_SET_NO = 999
REV_AT_EPOCH   = 188
BSTAR          = .56775674E-3
MEAN_MOTION_DOT = .5119E-4
MEAN_MOTION_DDOT = 0

CCSDS_OMM_VERS = 2.0
CREATION_DATE  = 
ORIGINATOR     = 

OBJECT_NAME    = TWILIGHT T
OBJECT_ID      = 2026-004T
CENTER_NAME    = EARTH
REF_FRAME      = TEME
TIME_SYSTEM    = UTC
MEAN_ELEMENT_THEORY = SGP/SGP4

EPOCH          = 2026-01-24T06:11:27.541824
MEAN_MOTION    = 14.87784802
ECCENTRICITY   = .00036014
INCLINATION    = 97.7972
RA_OF_ASC_NODE = 25.2121
ARG_OF_PERICENTER = 240.5504
MEAN_ANOMALY   = 119.5354

EPHEMERIS_TYPE = 0
CLASSIFICATION_TYPE = U
NORAD_CAT_ID   = 67380
ELEMENT_SET_NO = 999
REV_AT_EPOCH   = 188
BSTAR          = .67988943E-3
MEAN_MOTION_DOT = .6156E-4
MEAN_MOTION_DDOT = 0

CCSDS_OMM_VERS = 2.0
CREATION_DATE  = 
ORIGINATOR     = 

OBJECT_NAME    = TWILIGHT U
OBJECT_ID      = 2026-004U
CENTER_NAME    = EARTH
REF_FRAME      = TEME
TIME_SYSTEM    = UTC
MEAN_ELEMENT_THEORY = SGP/SGP4

EPOCH          = 2026-01-24T06:09:49.319712
MEAN_MOTION    = 14.87868184
ECCENTRICITY   = .00041279
INCLINATION    = 97.8008
RA_OF_ASC_NODE = 25.2181
ARG_OF_PERICENTER = 236.2727
MEAN_ANOMALY   = 123.8096

EPHEMERIS_TYPE = 0
CLASSIFICATION_TYPE = U
NORAD_CAT_ID   = 67381
ELEMENT_SET_NO = 999
REV_AT_EPOCH   = 188
BSTAR          = -.89134694E-3
MEAN_MOTION_DOT = -.8196E-4
MEAN_MOTION_DDOT = 0

CCSDS_OMM_VERS = 2.0
CREATION_DATE  = 
ORIGINATOR     = 

OBJECT_NAME    = TWILIGHT V
OBJECT_ID      = 2026-004V
CENTER_NAME    = EARTH
REF_FRAME      = TEME
TIME_SYSTEM    = UTC
MEAN_ELEMENT_THEORY = SGP/SGP4

EPOCH          = 2026-01-24T06:08:59.793504
MEAN_MOTION    = 14.87979405
ECCENTRICITY   = .00034752
INCLINATION    = 97.8000
RA_OF_ASC_NODE = 25.2166
ARG_OF_PERICENTER = 223.0335
MEAN_ANOMALY   = 137.0610

EPHEMERIS_TYPE = 0
CLASSIFICATION_TYPE = U
NORAD_CAT_ID   = 67382
ELEMENT_SET_NO = 999
REV_AT_EPOCH   = 188
BSTAR          = .55470234E-3
MEAN_MOTION_DOT = .5036E-4
MEAN_MOTION_DDOT = 0

CCSDS_OMM_VERS = 2.0
CREATION_DATE  = 
ORIGINATOR     = 

OBJECT_NAME    = TWILIGHT W
OBJECT_ID      = 2026-004W
CENTER_NAME    = EARTH
REF_FRAME      = TEME
TIME_SYSTEM    = UTC
MEAN_ELEMENT_THEORY = SGP/SGP4

EPOCH          = 2026-01-24T06:12:21.156480
MEAN_MOTION    = 14.87700578
ECCENTRICITY   = .0003919
INCLINATION    = 97.7976
RA_OF_ASC_NODE = 25.2120
ARG_OF_PERICENTER = 242.5306
MEAN_ANOMALY   = 117.5512

EPHEMERIS_TYPE = 0
CLASSIFICATION_TYPE = U
NORAD_CAT_ID   = 67383
ELEMENT_SET_NO = 999
REV_AT_EPOCH   = 188
BSTAR          = .5778221E-3
MEAN_MOTION_DOT = .5212E-4
MEAN_MOTION_DDOT = 0

CCSDS_OMM_VERS = 2.0
CREATION_DATE  = 
ORIGINATOR     = 

OBJECT_NAME    = TWILIGHT X
OBJECT_ID      = 2026-004X
CENTER_NAME    = EARTH
REF_FRAME      = TEME
TIME_SYSTEM    = UTC
MEAN_ELEMENT_THEORY = SGP/SGP4

EPOCH          = 2026-01-24T06:07:59.053440
MEAN_MOTION    = 14.88130256
ECCENTRICITY   = .00028549
INCLINATION    = 97.7975
RA_OF_ASC_NODE = 25.2159
ARG_OF_PERICENTER = 225.5533
MEAN_ANOMALY   = 134.5451

EPHEMERIS_TYPE = 0
CLASSIFICATION_TYPE = U
NORAD_CAT_ID   = 67384
ELEMENT_SET_NO = 999
REV_AT_EPOCH   = 188
BSTAR          = .11199801E-2
MEAN_MOTION_DOT = .10269E-3
MEAN_MOTION_DDOT = 0

CCSDS_OMM_VERS = 2.0
CREATION_DATE  = 
ORIGINATOR     = 

OBJECT_NAME    = TWILIGHT Y
OBJECT_ID      = 2026-004Y
CENTER_NAME    = EARTH
REF_FRAME      = TEME
TIME_SYSTEM    = UTC
MEAN_ELEMENT_THEORY = SGP/SGP4

EPOCH          = 2026-01-24T06:06:56.692512
MEAN_MOTION    = 14.88214190
ECCENTRICITY   = .00027635
INCLINATION    = 97.7986
RA_OF_ASC_NODE = 25.2174
ARG_OF_PERICENTER = 217.9685
MEAN_ANOMALY   = 142.1337

EPHEMERIS_TYPE = 0
CLASSIFICATION_TYPE = U
NORAD_CAT_ID   = 67385
ELEMENT_SET_NO = 999
REV_AT_EPOCH   = 188
BSTAR          = .10872674E-2
MEAN_MOTION_DOT = .9988E-4
MEAN_MOTION_DDOT = 0

